TURKSAT 5B              
1 50212U 21126A   22307.48595483  .00000138  00000+0  00000+0 0  9992
2 50212   0.0727 337.5123 0003102 315.4265 326.7520  1.00271119  3048
INMARSAT 6-F1           
1 50319U 21128A   22307.17549455 -.00000213  00000+0  00000+0 0  9991
2 50319   0.0313 284.6678 0000270  16.7841 136.1479  1.00269980  2990
SHIYAN 12 01 (SY-12 01) 
1 50321U 21129A   22307.57966288  .00000067  00000+0  00000+0 0  9992
2 50321   0.2720 117.1137 0001524 194.9446 352.6230  1.00421376  3259
SHIYAN 12 02 (SY-12 02) 
1 50322U 21129B   22307.63483979 -.00000018  00000+0  00000+0 0  9998
2 50322   0.2712 117.1951 0003355 144.9063 177.8653  1.00388800  3260
TJS-9                   
1 50574U 21135A   22306.34771723 -.00000309  00000+0  00000+0 0  9991
2 50574   0.0793 288.0137 0004308 276.5832  99.3222  1.00261182  3178
USA 324                 
1 51280U 22006A   22306.13174225  .00000143  00000+0  00000+0 0  9990
2 51280   0.1113  93.7416 0000297 290.6729  88.0290  1.00489225  2849
USA 325                 
1 51281U 22006B   22306.11923944  .00000144  00000+0  00000+0 0  9990
2 51281   0.0531  85.4349 0001016 342.4466  39.9857  1.00514547  2840
GOES 18                 
1 51850U 22021A   22305.65690118  .00000090  00000+0  00000+0 0  9991
2 51850   0.0095  82.0046 0002233 142.5054 275.9891  1.00271347  2510
CHINASAT 6D             
1 52255U 22038A   22307.65636291 -.00000361  00000+0  00000+0 0  9995
2 52255   0.0201 285.8544 0002288 276.7599 201.6405  1.00268665  2199
NILESAT 301             
1 52817U 22061A   22307.16438257 -.00000065  00000+0  00000+0 0  9994
2 52817   0.0439  25.5413 0003061 216.3289 212.7898  1.00273615  1498
CMS-02 (GSAT 24)        
1 52903U 22067A   22307.59052138 -.00000266  00000+0  00000+0 0  9996
2 52903   0.0504 269.7262 0004594 208.4481 230.7344  1.00270990  1375
MEASAT 3D               
1 52904U 22067B   22307.59041397 -.00000249  00000+0  00000+0 0  9993
2 52904   0.0325 323.2707 0002936 293.5431  90.0594  1.00267505  1401
SES-22                  
1 52933U 22071A   22307.57598267  .00000081  00000+0  00000+0 0  9994
2 52933   0.0117 238.2681 0002843 354.9477 241.9481  1.00271410  1308
WFOV (USA 332)          
1 52940U 22073A   22307.54793542 -.00000370  00000+0  00000+0 0  9996
2 52940   0.3005  99.0324 0001948 189.6072  70.6901  1.00267582  1119
TIANLIAN 2-03           
1 53100U 22078A   22307.16993718  .00000061  00000+0  00000+0 0  9991
2 53100   2.7454 283.8267 0000485 244.6321 305.8014  1.00275650  1297
SBIRS GEO-6 (USA 336)   
1 53355U 22092A   22307.56384309  .00000097  00000+0  00000+0 0  9992
2 53355   6.4196 312.0691 0002973 309.7375 199.1153  1.00266690   982
CHINASAT 1E (ZX 1E)     
1 53813U 22112A   22307.63314348 -.00000159  00000+0  00000+0 0  9998
2 53813   1.3951 279.9414 0002369 290.5474 141.6819  1.00269896   605
SES-20                  
1 53960U 22123A   22307.56760522  .00000105  00000+0  00000+0 0  9994
2 53960   0.0468 258.6362 0002928 115.7915  91.5114  1.00272837   297
SES-21                  
1 53961U 22123B   22307.56593417  .00000109  00000+0  00000+0 0  9996
2 53961   0.0450 321.3869 0000248 151.3953 350.9045  1.00274017   310
